[{"OBJECT_NAME":"STARLINK-3107","OBJECT_ID":"2021-082AT","EPOCH":"2026-03-09T21:59:27.140640","MEAN_MOTION":15.10504087,"ECCENTRICITY":0.00073375,"INCLINATION":69.9932,"RA_OF_ASC_NODE":287.3824,"ARG_OF_PERICENTER":250.2407,"MEAN_ANOMALY":109.7967,"EPHEMERIS_TYPE":0,"CLASSIFICATION_TYPE":"U","NORAD_CAT_ID":49171,"ELEMENT_SET_NO":999,"REV_AT_EPOCH":24733,"BSTAR":0.001517345,"MEAN_MOTION_DOT":0.00025048,"MEAN_MOTION_DDOT":0},{"OBJECT_NAME":"STARLINK-3784","OBJECT_ID":"2022-041Q","EPOCH":"2026-03-09T19:33:33.344928","MEAN_MOTION":15.08837987,"ECCENTRICITY":0.00015972,"INCLINATION":53.2196,"RA_OF_ASC_NODE":108.5594,"ARG_OF_PERICENTER":90.9791,"MEAN_ANOMALY":269.1385,"EPHEMERIS_TYPE":0,"CLASSIFICATION_TYPE":"U","NORAD_CAT_ID":52275,"ELEMENT_SET_NO":999,"REV_AT_EPOCH":21438,"BSTAR":-1.6358638e-5,"MEAN_MOTION_DOT":-5.48e-6,"MEAN_MOTION_DDOT":0}]
